NORAD_CAT_ID,OBJECT_NAME,OBJECT_TYPE,EPOCH,MEAN_MOTION,ECCENTRICITY,INCLINATION,RA_OF_ASC_NODE,ARG_OF_PERICENTER,MEAN_ANOMALY,BSTAR,MEAN_MOTION_DOT,MEAN_MOTION_DDOT,TLE_LINE0,TLE_LINE1,TLE_LINE2,SEMIMAJOR_AXIS,PERIOD,APOGEE,PERIGEE,DECAYED
49433.0,STARLINK-3079,PAYLOAD,2022-12-04 18:27:04,15.08837377,0.0003371,53.2168,155.3774,45.2946,314.832,6.4776e-05,7.42e-06,0.0,0 STARLINK-3079,1 49433U 21104AB  22338.76879907  .00000742  00000-0  64776-4 0  9999,2 49433  53.2168 155.3774 0003371  45.2946 314.8320 15.08837377 60215,6917.888000000001,95.438,542.085,537.4209999999998,0.0
49433.0,STARLINK-3079,PAYLOAD,2022-12-04 23:13:13,15.08836728,0.0003418,53.2168,154.4857,45.2651,314.8619,0.00012577,1.713e-05,0.0,0 STARLINK-3079,1 49433U 21104AB  22338.96751927  .00001713  00000-0  12577-3 0  9992,2 49433  53.2168 154.4857 0003418  45.2651 314.8619 15.08836728 60245,6917.89,95.438,542.12,537.391,0.0
49433.0,STARLINK-3079,PAYLOAD,2022-12-05 18:17:50,15.0884469,0.0003443,53.2169,150.9173,46.8395,313.2885,0.00014287,1.986e-05,0.0,0 STARLINK-3079,1 49433U 21104AB  22339.76239485  .00001986  00000-0  14287-3 0  9993,2 49433  53.2169 150.9173 0003443  46.8395 313.2885 15.08844690 60366,6917.866,95.437,542.113,537.349,0.0
49433.0,STARLINK-3079,PAYLOAD,2022-12-05 21:28:37,15.08845937,0.0003455,53.2169,150.3225,47.1625,312.9657,0.00015066,2.11e-05,0.0,0 STARLINK-3079,1 49433U 21104AB  22339.89487375  .00002110  00000-0  15066-3 0  9996,2 49433  53.2169 150.3225 0003455  47.1625 312.9657 15.08845937 60381,6917.861999999999,95.437,542.117,537.337,0.0
49433.0,STARLINK-3079,PAYLOAD,2022-12-06 11:47:05,15.08846833,0.0003481999999999,53.217,147.6463,48.429,311.7001,0.00012788,1.747e-05,0.0,0 STARLINK-3079,1 49433U 21104AB  22340.49103307  .00001747  00000-0  12788-3 0  9997,2 49433  53.2170 147.6463 0003482  48.4290 311.7001 15.08846833 60474,6917.86,95.437,542.133,537.316,0.0
49433.0,STARLINK-3079,PAYLOAD,2022-12-06 21:19:24,15.08839075,0.0003493,53.217,145.8621,48.3267,311.8024,2.287300000000001e-05,7.5e-07,0.0,0 STARLINK-3079,1 49433U 21104AB  22340.88847953  .00000075  00000-0  22873-4 0  9992,2 49433  53.2170 145.8621 0003493  48.3267 311.8024 15.08839075 60538,6917.8830000000025,95.438,542.165,537.332,0.0
49433.0,STARLINK-3079,PAYLOAD,2022-12-07 17:59:24,15.08849299,0.0003473,53.2169,141.9968,49.2823,310.847,5.7543e-05,6.27e-06,0.0,0 STARLINK-3079,1 49433U 21104AB  22341.74959026  .00000627  00000-0  57543-4 0  9998,2 49433  53.2169 141.9968 0003473  49.2823 310.8470 15.08849299 60660,6917.852,95.437,542.12,537.314,0.0
49433.0,STARLINK-3079,PAYLOAD,2022-12-08 09:53:15,15.08848558,0.0003731,53.218,139.0242,55.3682,304.7662,0.00017118,2.437e-05,0.0,0 STARLINK-3079,1 49433U 21104AB  22342.41198504  .00002437  00000-0  17118-3 0  9993,2 49433  53.2180 139.0242 0003731  55.3682 304.7662 15.08848558 60767,6917.854,95.437,542.3,537.138,0.0
49433.0,STARLINK-3079,PAYLOAD,2022-12-08 17:50:12,15.08833301,0.0002974,53.2184,137.5386,45.3606,314.7628,3.6508e-05,2.92e-06,0.0,0 STARLINK-3079,1 49433U 21104AB  22342.74319675  .00000292  00000-0  36508-4 0  9995,2 49433  53.2184 137.5386 0002974  45.3606 314.7628 15.08833301 60815,6917.901,95.438,541.823,537.7080000000002,0.0
49433.0,STARLINK-3079,PAYLOAD,2022-12-09 03:22:30,15.088448800000002,0.0002824,53.2181,135.7542,45.0884,315.0337,0.00013055,1.7899999999999998e-05,0.0,0 STARLINK-3079,1 49433U 21104AB  22343.14062806  .00001790  00000-0  13055-3 0  9996,2 49433  53.2181 135.7542 0002824  45.0884 315.0337 15.08844880 60876,6917.865,95.437,541.684,537.7769999999998,0.0
49433.0,STARLINK-3079,PAYLOAD,2022-12-09 19:16:18,15.08889446,0.000206,53.2177,132.7806,42.854,317.2613,0.00032111,4.833e-05,0.0,0 STARLINK-3079,1 49433U 21104AB  22343.80299263  .00004833  00000-0  32111-3 0  9993,2 49433  53.2177 132.7806 0002060  42.8540 317.2613 15.08889446 60976,6917.729,95.434,541.019,538.169,0.0
49433.0,STARLINK-3079,PAYLOAD,2022-12-09 22:27:08,15.08851419,0.0001924,53.2177,132.1861,46.4882,313.6269,-0.00042684,-7.077e-05,0.0,0 STARLINK-3079,1 49433U 21104AB  22343.93551029 -.00007077  00000-0 -42684-3 0  9999,2 49433  53.2177 132.1861 0001924  46.4882 313.6269 15.08851419 60996,6917.845,95.437,541.0409999999998,538.379,0.0
49433.0,STARLINK-3079,PAYLOAD,2022-12-10 14:21:00,15.08822306,0.0002164,53.2173,129.2104,34.9704,325.143,0.00032163,4.832e-05,0.0,0 STARLINK-3079,1 49433U 21104AB  22344.59791907  .00004832  00000-0  32163-3 0  9998,2 49433  53.2173 129.2104 0002164  34.9704 325.1430 15.08822306 61094,6917.934,95.439,541.297,538.302,0.0
49433.0,STARLINK-3079,PAYLOAD,2022-12-10 17:31:46,15.0883846,0.0003251,53.2176,128.6157,49.1084,311.0189,6.275100000000001e-05,7.1e-06,0.0,0 STARLINK-3079,1 49433U 21104AB  22344.73039778  .00000710  00000-0  62751-4 0  9993,2 49433  53.2176 128.6157 0003251  49.1084 311.0189 15.08838460 61111,6917.885,95.438,541.999,537.501,0.0
49433.0,STARLINK-3079,PAYLOAD,2022-12-10 22:17:55,15.08838232,0.0003251,53.2174,127.7232,50.8601,309.268,5.9647e-05,6.61e-06,0.0,0 STARLINK-3079,1 49433U 21104AB  22344.92911885  .00000661  00000-0  59647-4 0  9997,2 49433  53.2174 127.7232 0003251  50.8601 309.2680 15.08838232 61142,6917.886,95.438,542.0,537.502,0.0
49433.0,STARLINK-3079,PAYLOAD,2022-12-11 18:57:56,15.08849665,0.0003364,53.2169,123.8579,49.6915,310.4371,0.00023004,3.375e-05,0.0,0 STARLINK-3079,1 49433U 21104AB  22345.79023448  .00003375  00000-0  23004-3 0  9994,2 49433  53.2169 123.8579 0003364  49.6915 310.4371 15.08849665 61273,6917.851,95.437,542.043,537.389,0.0
49433.0,STARLINK-3079,PAYLOAD,2022-12-12 12:27:10,15.08846538,0.0003557,53.2165,120.5873,49.4313,310.6989,0.00020098,2.912e-05,0.0,0 STARLINK-3079,1 49433U 21104AB  22346.51887452  .00002912  00000-0  20098-3 0  9994,2 49433  53.2165 120.5873 0003557  49.4313 310.6989 15.08846538 61389,6917.86,95.437,542.186,537.265,0.0
49433.0,STARLINK-3079,PAYLOAD,2022-12-12 20:24:06,15.08844526,0.0003605,53.2162,119.1006,48.6168,311.5134,0.00013495,1.86e-05,0.0,0 STARLINK-3079,1 49433U 21104AB  22346.85007480  .00001860  00000-0  13495-3 0  9990,2 49433  53.2162 119.1006 0003605  48.6168 311.5134 15.08844526 61434,6917.8669999999975,95.437,542.225,537.238,0.0
49433.0,STARLINK-3079,PAYLOAD,2022-12-13 09:07:11,15.08840414,0.0003718,53.216,116.722,49.6273,310.5043,2.7162e-06,-2.46e-06,0.0,0 STARLINK-3079,1 49433U 21104AB  22347.37999643 -.00000246  00000-0  27162-5 0  9995,2 49433  53.2160 116.7220 0003718  49.6273 310.5043 15.08840414 61515,6917.879,95.438,542.316,537.172,0.0
49433.0,STARLINK-3079,PAYLOAD,2022-12-13 20:14:53,15.08843613,0.0003406,53.2163,114.6396,50.9747,309.1548,-1.1908e-05,-4.78e-06,0.0,0 STARLINK-3079,1 49433U 21104AB  22347.84367431 -.00000478  00000-0 -11908-4 0  9999,2 49433  53.2163 114.6396 0003406  50.9747 309.1548 15.08843613 61589,6917.869000000002,95.437,542.091,537.378,0.0
49433.0,STARLINK-3079,PAYLOAD,2022-12-14 08:57:58,15.08848011,0.0003372,53.2159,112.261,52.1514,307.9783,-0.0001019,-1.911e-05,0.0,0 STARLINK-3079,1 49433U 21104AB  22348.37359504 -.00001911  00000-0 -10190-3 0  9994,2 49433  53.2159 112.2610 0003372  52.1514 307.9783 15.08848011 61668,6917.856,95.437,542.054,537.388,0.0
49433.0,STARLINK-3079,PAYLOAD,2022-12-14 20:05:40,15.08837017,0.0003167,53.2161,110.1797,50.2847,309.8424,1.912e-06,-2.58e-06,0.0,0 STARLINK-3079,1 49433U 21104AB  22348.83727769 -.00000258  00000-0  19120-5 0  9993,2 49433  53.2161 110.1797 0003167  50.2847 309.8424 15.08837017 61739,6917.89,95.438,541.945,537.564,0.0
49433.0,STARLINK-3079,PAYLOAD,2022-12-15 13:34:55,15.08835389,0.0003127,53.2168,106.9085,52.0535,308.0739,3.7211e-05,3.04e-06,0.0,0 STARLINK-3079,1 49433U 21104AB  22349.56592034  .00000304  00000-0  37211-4 0  9990,2 49433  53.2168 106.9085 0003127  52.0535 308.0739 15.08835389 61841,6917.894,95.438,541.923,537.596,0.0
49433.0,STARLINK-3079,PAYLOAD,2022-12-15 18:21:04,15.088399800000005,0.0003165,53.2169,106.0168,51.8314,308.2962,7.8669e-05,9.64e-06,0.0,0 STARLINK-3079,1 49433U 21104AB  22349.76463690  .00000964  00000-0  78669-4 0  9991,2 49433  53.2169 106.0168 0003165  51.8314 308.2962 15.08839980 61873,6917.88,95.438,541.935,537.556,0.0
49433.0,STARLINK-3079,PAYLOAD,2022-12-16 00:42:36,15.08850199,0.000318,53.217,104.8271,49.1876,310.9392,0.00016746,2.378e-05,0.0,0 STARLINK-3079,1 49433U 21104AB  22350.02958756  .00002378  00000-0  16746-3 0  9992,2 49433  53.2170 104.8271 0003180  49.1876 310.9392 15.08850199 61913,6917.849,95.437,541.914,537.514,0.0
49433.0,STARLINK-3079,PAYLOAD,2022-12-16 13:25:41,15.08843626,0.0003054,53.2186,102.449,47.9463,312.1788,5.4812e-05,5.84e-06,0.0,0 STARLINK-3079,1 49433U 21104AB  22350.55951219  .00000584  00000-0  54812-4 0  9991,2 49433  53.2186 102.4490 0003054  47.9463 312.1788 15.08843626 61993,6917.869000000002,95.437,541.847,537.622,0.0
49433.0,STARLINK-3079,PAYLOAD,2022-12-16 18:11:51,15.08839956,0.0002991,53.2182,101.5568,49.6823,310.443,1.8183e-05,1e-08,0.0,0 STARLINK-3079,1 49433U 21104AB  22350.75823632  .00000001  00000-0  18183-4 0  9995,2 49433  53.2182 101.5568 0002991  49.6823 310.4430 15.08839956 62024,6917.880999999999,95.438,541.815,537.6759999999998,0.0
49433.0,STARLINK-3079,PAYLOAD,2022-12-17 00:33:24,15.08837761,0.0003026,53.218,100.3676,47.4461,312.6787,3.306e-05,2.38e-06,0.0,0 STARLINK-3079,1 49433U 21104AB  22351.02319724  .00000238  00000-0  33060-4 0  9991,2 49433  53.2180 100.3676 0003026  47.4461 312.6787 15.08837761 62068,6917.887,95.438,541.846,537.659,0.0
49433.0,STARLINK-3079,PAYLOAD,2022-12-17 08:30:20,15.08829409,0.0002821,53.2191,98.8804,43.4585,316.6629,-3.715e-05,-8.8e-06,0.0,0 STARLINK-3079,1 49433U 21104AB  22351.35440497 -.00000880  00000-0 -37150-4 0  9998,2 49433  53.2191  98.8804 0002821  43.4585 316.6629 15.08829409 62114,6917.913000000001,95.438,541.729,537.826,0.0
